     2.100          NAVIGATION                              RINEX VERSION / TYPE
fic2rin                                 08/05/2014 00:24:31 PGM / RUN BY / DATE
                                                            END OF HEADER
10 14  8  4 12  0  0.0 -.136484857649D-03 -.159161572810D-11  .000000000000D+00
     .260000000000D+02  .151875000000D+02  .491449042254D-08  .456956462185D+00
     .840052962303D-06  .137078583939D-01  .958330929279D-05  .515360875511D+04
     .129600000000D+06 -.128522515297D-06 -.189318765484D+01  .171363353729D-06
     .941597957060D+00  .186812500000D+03  .871626580940D+00 -.834356182855D-08
    -.269654089318D-09  .100000000000D+01  .180400000000D+04  .000000000000D+00
     .240000000000D+01  .000000000000D+00 -.279396772385D-08  .260000000000D+02
     .122406000000D+06  .400000000000D+01
11 14  8  4 12  0  0.0 -.510687474161D-03 -.306954461848D-11  .000000000000D+00
     .230000000000D+02 -.182812500000D+02  .613096966521D-08  .306258226068D+01
    -.882893800735D-06  .152963722358D-01  .563450157642D-05  .515370582581D+04
     .129600000000D+06  .184401869774D-06  .300706949496D+01 -.100582838058D-06
     .891363363193D+00  .230843750000D+03  .131203966475D+01 -.862714506951D-08
     .105718689322D-09  .100000000000D+01  .180400000000D+04  .000000000000D+00
     .240000000000D+01  .000000000000D+00 -.121071934700D-07  .230000000000D+02
     .122406000000D+06  .400000000000D+01
12 14  8  4 12  0  0.0  .222637783736D-03  .261479726760D-11  .000000000000D+00
     .650000000000D+02 -.690625000000D+02  .382123059816D-08  .245466608816D+01
    -.368431210518D-05  .509848527145D-02  .806152820587D-05  .515358110046D+04
     .129600000000D+06 -.968575477600D-07  .127691859313D+01 -.447034835815D-07
     .987870499172D+00  .237781250000D+03  .495056137418D+00 -.773460789175D-08
    -.136434254463D-09  .100000000000D+01  .180400000000D+04  .000000000000D+00
     .240000000000D+01  .000000000000D+00 -.121071934700D-07  .650000000000D+02
     .122406000000D+06  .400000000000D+01
13 14  8  4 12  0  0.0 -.275326892734D-04 -.397903932026D-11  .000000000000D+00
     .630000000000D+02  .734375000000D+02  .426089176896D-08 -.104538520099D+01
     .357069075108D-05  .530051637907D-02  .717304646969D-05  .515355665016D+04
     .129600000000D+06 -.502914190292D-07 -.750478076241D+00  .745058059692D-08
     .976853027587D+00  .255312500000D+03  .232522337630D+01 -.800354766560D-08
     .188936441390D-09  .100000000000D+01  .180400000000D+04  .000000000000D+00
     .240000000000D+01  .000000000000D+00 -.111758708954D-07  .630000000000D+02
     .122406000000D+06  .400000000000D+01
14 14  8  4 12  0  0.0  .148027203977D-03 -.363797880709D-11  .000000000000D+00
     .460000000000D+02  .717812500000D+02  .447018620120D-08 -.687674123885D+00
     .392645597458D-05  .781325611752D-02  .782310962677D-05  .515369668579D+04
     .129600000000D+06 -.763684511185D-07 -.782823189122D+00  .104308128357D-06
     .969374381168D+00  .236781250000D+03 -.199139637082D+01 -.811962392921D-08
     .155006456641D-09  .100000000000D+01  .180400000000D+04  .000000000000D+00
     .240000000000D+01  .000000000000D+00 -.884756445885D-08  .460000000000D+02
     .122406000000D+06  .400000000000D+01
15 14  8  4 12  0  0.0 -.194924417883D-03 -.216004991671D-11  .000000000000D+00
     .540000000000D+02  .855937500000D+02  .508128308441D-08 -.130173697201D+01
     .422261655331D-05  .639510399196D-02  .779330730438D-05  .515373907852D+04
     .129600000000D+06  .745058059692D-07 -.897100869384D+00 -.139698386192D-06
     .935891226278D+00  .211343750000D+03  .271460633871D+00 -.834784772137D-08
     .193579491934D-09  .100000000000D+01  .180400000000D+04  .000000000000D+00
     .240000000000D+01  .000000000000D+00 -.102445483208D-07  .540000000000D+02
     .122406000000D+06  .400000000000D+01
16 14  8  4 12  0  0.0 -.203520990908D-03  .227373675443D-11  .000000000000D+00
     .730000000000D+02 -.450000000000D+02  .390480550797D-08  .337731871774D+00
    -.235438346863D-05  .766550994013D-02  .739656388760D-05  .515363941383D+04
     .129600000000D+06  .670552253723D-07  .129550500390D+01  .540167093277D-07
     .988456043836D+00  .248593750000D+03  .238366553747D+00 -.790211486909D-08
    -.152506352502D-09  .100000000000D+01  .180400000000D+04  .000000000000D+00
     .240000000000D+01  .000000000000D+00 -.102445483208D-07  .730000000000D+02
     .122406000000D+06  .400000000000D+01
17 14  8  4 12  0  0.0 -.114007387310D-03 -.284217094304D-11  .000000000000D+00
     .780000000000D+02 -.140625000000D+02  .447197198987D-08 -.567610684543D+00
    -.735744833946D-06  .937999540474D-02  .809133052826D-05  .515362811470D+04
     .129600000000D+06 -.204890966415D-07  .232678153328D+01  .165775418282D-06
     .969437949348D+00  .230000000000D+03 -.209878381226D+01 -.818855537191D-08
     .217151902391D-09  .100000000000D+01  .180400000000D+04  .000000000000D+00
     .240000000000D+01  .000000000000D+00 -.102445483208D-07  .780000000000D+02
     .122406000000D+06  .400000000000D+01
18 14  8  4 12  0  0.0  .335868913680D-03  .250111042988D-11  .000000000000D+00
     .940000000000D+02 -.618750000000D+01  .531022119203D-08  .966723734530D+00
    -.281259417534D-06  .154937999323D-01  .979192554951D-05  .515371759605D+04
     .129600000000D+06 -.257045030594D-06 -.191683167624D+01 -.447034835815D-07
     .925373235887D+00  .173593750000D+03 -.201762075295D+01 -.859428655796D-08
    -.347157317639D-09  .100000000000D+01  .180400000000D+04  .000000000000D+00
     .240000000000D+01  .000000000000D+00 -.107102096081D-07  .940000000000D+02
     .122406000000D+06  .400000000000D+01
19 14  8  4 12  0  0.0 -.471752602607D-03 -.204636307899D-11  .000000000000D+00
     .320000000000D+02 -.145312500000D+02  .435232414891D-08 -.140442211490D+01
    -.761821866035D-06  .105494447052D-01  .779144465923D-05  .515363960838D+04
     .129600000000D+06  .124797224998D-06  .237737875235D+01 -.175088644028D-06
     .966577872820D+00  .232937500000D+03  .478774385846D+00 -.791104381244D-08
     .245724521127D-09  .100000000000D+01  .180400000000D+04  .000000000000D+00
     .240000000000D+01  .000000000000D+00 -.149011611938D-07  .320000000000D+02
     .122406000000D+06  .400000000000D+01
20 14  8  4 12  0  0.0  .218190252781D-03  .432009983342D-11  .000000000000D+00
     .950000000000D+02  .200000000000D+01  .519450208615D-08  .147640536472D+01
     .540167093277D-07  .580874655861D-02  .903196632862D-05  .515375475693D+04
     .129600000000D+06 -.726431608200D-07 -.196983961753D+01 -.838190317154D-07
     .926444839472D+00  .186156250000D+03  .132601732327D+01 -.838856370306D-08
    -.130005415247D-09  .100000000000D+01  .180400000000D+04  .000000000000D+00
     .240000000000D+01  .000000000000D+00 -.791624188423D-08  .950000000000D+02
     .122406000000D+06  .400000000000D+01
22 14  8  4 12  0  0.0  .256005674601D-03  .329691829393D-11  .000000000000D+00
     .220000000000D+02 -.225000000000D+01  .534950854279D-08  .407303245129D+00
    -.894069671631D-07  .738480640575D-02  .927038490772D-05  .515372417831D+04
     .129600000000D+06 -.232830643654D-06 -.191507782910D+01  .670552253723D-07
     .923157843950D+00  .182562500000D+03 -.204697636055D+01 -.843606568171D-08
    -.206794328100D-09  .100000000000D+01  .180400000000D+04  .000000000000D+00
     .240000000000D+01  .000000000000D+00 -.172294676304D-07  .220000000000D+02
     .122406000000D+06  .400000000000D+01
23 14  8  4 12  0  0.0 -.418666750193D-04 -.295585778076D-11  .000000000000D+00
     .300000000000D+02  .744687500000D+02  .476519848964D-08 -.179799107256D+01
     .352412462234D-05  .965380156413D-02  .697933137417D-05  .515375438690D+04
     .129600000000D+06  .651925802231D-07 -.849385284398D+00 -.838190317154D-07
     .951009712206D+00  .239062500000D+03 -.274731797694D+01 -.814176770873D-08
     .236081262304D-09  .100000000000D+01  .180400000000D+04  .000000000000D+00
     .240000000000D+01  .000000000000D+00 -.200234353542D-07  .300000000000D+02
     .122406000000D+06  .400000000000D+01
24 14  8  4 12  0  0.0 -.329487957060D-04 -.682121026330D-12  .000000000000D+00
     .140000000000D+02  .170937500000D+02  .490663295239D-08 -.253264663940D+01
     .799074769020D-06  .211563694756D-02  .392273068428D-05  .515371718979D+04
     .129600000000D+06 -.633299350739D-07  .177234296897D+00 -.614672899246D-07
     .956522354721D+00  .302875000000D+03  .304643542381D+00 -.843463705077D-08
    -.257153568621D-10  .100000000000D+01  .180400000000D+04  .000000000000D+00
     .240000000000D+01  .000000000000D+00  .279396772385D-08  .140000000000D+02
     .122406000000D+06  .400000000000D+01
25 14  8  4 12  0  0.0  .241207890213D-04 -.454747350886D-12  .000000000000D+00
     .104000000000D+03 -.673750000000D+02  .415588739511D-08  .169878274905D+01
    -.347942113876D-05  .367987365462D-02  .764243304729D-05  .515357962036D+04
     .129600000000D+06 -.875443220139D-07  .123368981300D+01  .353902578354D-07
     .976561620157D+00  .241000000000D+03  .730907493185D+00 -.797318925819D-08
    -.123219418298D-09  .100000000000D+01  .180400000000D+04  .000000000000D+00
     .240000000000D+01  .000000000000D+00  .558793544769D-08  .104000000000D+03
     .122406000000D+06  .400000000000D+01
26 14  8  4 12  0  0.0 -.827666372061D-05 -.129602995003D-10  .000000000000D+00
     .950000000000D+02  .952500000000D+02  .422410452234D-08 -.184849259924D+01
     .507757067680D-05  .212196754292D-01  .695697963238D-05  .515369257736D+04
     .129600000000D+06  .441446900368D-06 -.759470168467D+00  .987201929092D-07
     .974225767157D+00  .245906250000D+03  .128976439047D+01 -.775460872487D-08
     .238581366443D-09  .100000000000D+01  .180400000000D+04  .000000000000D+00
     .340000000000D+01  .000000000000D+00 -.605359673500D-08  .950000000000D+02
     .122406000000D+06  .400000000000D+01
